*******************************************************************************
JPL/HORIZONS               1011 Laodamia (A924 AC)         2023-Sep-04 11:09:41
Rec #:    1011 (+COV) Soln.date: 2023-Aug-21_10:38:01   # obs: 3102 (1924-2023)
 
IAU76/J2000 helio. ecliptic osc. elements (au, days, deg., period=Julian yrs):
 
  EPOCH=  2457520.5 ! 2016-May-12.00 (TDB)         Residual RMS= .26934
   EC= .3504033586251761   QR= 1.554246909766747   TP= 2457670.0092758033
   OM= 132.5535728379152   W=  353.3579302639448   IN= 5.494093808415143
   A= 2.392633845023115    MA= 320.1839797049314   ADIST= 3.231020780279484
   PER= 3.70103            N= .266311372           ANGMOM= .024921444
   DAN= 1.55696            DDN= 3.21937            L= 125.9417455
   B= -.6345222            MOID= .56897199         TP= 2016-Oct-08.5092758033
 
Asteroid physical parameters (km, seconds, rotational period in hours):
   GM= n.a.                RAD= n.a.               ROTPER= 5.17247
   H= 12.72                G= .150                 B-V= .900
                           ALBEDO= n.a.            STYP= Sr

ASTEROID comments: 
1: soln ref.= JPL#49, OCC=0
2: source=ORB
*******************************************************************************


*******************************************************************************
Ephemeris / API_USER Mon Sep  4 11:09:41 2023 Pasadena, USA      / Horizons
*******************************************************************************
Target body name: 1011 Laodamia (A924 AC)         {source: JPL#49}
Center body name: Solar System Barycenter (0)     {source: DE441}
Center-site name: BODY CENTER
*******************************************************************************
Start time      : A.D. 2023-Aug-12 00:00:00.0000 TDB
Stop  time      : A.D. 2023-Aug-13 00:00:00.0000 TDB
Step-size       : 2880 minutes
*******************************************************************************
Center geodetic : 0.0, 0.0, 0.0                   {E-lon(deg),Lat(deg),Alt(km)}
Center cylindric: 0.0, 0.0, 0.0                   {E-lon(deg),Dxy(km),Dz(km)}
Center radii    : (undefined)
Small perturbers: Yes                             {source: SB441-N16}
Output units    : KM-S
Calendar mode   : Mixed Julian/Gregorian
Output type     : GEOMETRIC cartesian states
Output format   : 2 (position and velocity)
Reference frame : Ecliptic of J2000.0
*******************************************************************************
Initial IAU76/J2000 heliocentric ecliptic osculating elements (au, days, deg.):
  EPOCH=  2457520.5 ! 2016-May-12.00 (TDB)         Residual RMS= .26934        
   EC= .3504033586251761   QR= 1.554246909766747   TP= 2457670.0092758033      
   OM= 132.5535728379152   W=  353.3579302639448   IN= 5.494093808415143       
  Equivalent ICRF heliocentric cartesian coordinates (au, au/d):
   X= 1.226902502286646E+00  Y= 1.430309769442496E+00  Z= 4.204687415535469E-01
  VX=-1.248575563838475E-02 VY= 4.518133356307086E-03 VZ= 2.557076760645280E-03
Asteroid physical parameters (km, seconds, rotational period in hours):        
   GM= n.a.                RAD= n.a.               ROTPER= 5.17247             
   H= 12.72                G= .150                 B-V= .900                   
                           ALBEDO= n.a.            STYP= Sr                    
*******************************************************************************
JDTDB
   X     Y     Z
   VX    VY    VZ
*******************************************************************************
$$SOE
2460168.500000000 = A.D. 2023-Aug-12 00:00:00.0000 TDB 
 X = 2.730201410064327E+08 Y = 1.673653347373575E+08 Z =-3.028264734169990E+07
 VX=-1.652709527100989E+01 VY= 1.333600388516283E+01 VZ= 3.055014995634355E-01
$$EOE
*******************************************************************************
 
TIME

  Barycentric Dynamical Time ("TDB" or T_eph) output was requested. This
continuous coordinate time is equivalent to the relativistic proper time
of a clock at rest in a reference frame co-moving with the solar system
barycenter but outside the system's gravity well. It is the independent
variable in the solar system relativistic equations of motion.

  TDB runs at a uniform rate of one SI second per second and is independent
of irregularities in Earth's rotation.
 
CALENDAR SYSTEM

  Mixed calendar mode was active such that calendar dates after AD 1582-Oct-15
(if any) are in the modern Gregorian system. Dates prior to 1582-Oct-5 (if any)
are in the Julian calendar system, which is automatically extended for dates
prior to its adoption on 45-Jan-1 BC.  The Julian calendar is useful for
matching historical dates. The Gregorian calendar more accurately corresponds
to the Earth's orbital motion and seasons. A "Gregorian-only" calendar mode is
available if such physical events are the primary interest.

REFERENCE FRAME AND COORDINATES

  Ecliptic at the standard reference epoch

    Reference epoch: J2000.0
    X-Y plane: adopted Earth orbital plane at the reference epoch
               Note: IAU76 obliquity of 84381.448 arcseconds wrt ICRF X-Y plane
    X-axis   : ICRF
    Z-axis   : perpendicular to the X-Y plane in the directional (+ or -) sense
               of Earth's north pole at the reference epoch.

  Symbol meaning:

    JDTDB    Julian Day Number, Barycentric Dynamical Time
      X      X-component of position vector (km)
      Y      Y-component of position vector (km)
      Z      Z-component of position vector (km)
      VX     X-component of velocity vector (km/sec)                           
      VY     Y-component of velocity vector (km/sec)                           
      VZ     Z-component of velocity vector (km/sec)                           

ABERRATIONS AND CORRECTIONS

 Geometric state vectors have NO corrections or aberrations applied.

Computations by ...

    Solar System Dynamics Group, Horizons On-Line Ephemeris System
    4800 Oak Grove Drive, Jet Propulsion Laboratory
    Pasadena, CA  91109   USA

    General site: https://ssd.jpl.nasa.gov/
    Mailing list: https://ssd.jpl.nasa.gov/email_list.html
    System news : https://ssd.jpl.nasa.gov/horizons/news.html
    User Guide  : https://ssd.jpl.nasa.gov/horizons/manual.html
    Connect     : browser        https://ssd.jpl.nasa.gov/horizons/app.html#/x
                  API            https://ssd-api.jpl.nasa.gov/doc/horizons.html
                  command-line   telnet ssd.jpl.nasa.gov 6775
                  e-mail/batch   https://ssd.jpl.nasa.gov/ftp/ssd/hrzn_batch.txt
                  scripts        https://ssd.jpl.nasa.gov/ftp/ssd/SCRIPTS
    Author      : Jon.D.Giorgini@jpl.nasa.gov
*******************************************************************************
